H2SAT (HEINRICH HERTZ)  
1 57213U 23093A   23214.37611882 -.00000097  00000+0  00000+0 0  9998
2 57213   0.0451 245.7326 0427535 160.9061  57.5529  1.08379568   345
SYRACUSE 4B             
1 57214U 23093B   23206.65288107 -.00000318  00000+0 -81003-2 0  9993
2 57214   2.9064  79.5122 7015108 188.0562 147.8388  2.07934729   439
2023-093C               
1 57215U 23093C   23214.10148834  .00021067  00000+0  81575-2 0  9991
2 57215   3.0964  71.6787 7259852 200.2310 101.5183  2.29891131   629
2023-093D               
1 57216U 23093D   23213.60190631  .00003977  00000+0  11007-2 0  9991
2 57216   2.8073  78.3875 7264766 193.2181 125.7515  2.30133665   627
KUZGTU 1 (RS47S)        
1 57217U 23091AV  23214.35448303  .00006421  00000+0  47314-3 0  9993
2 57217  97.6633 264.7179 0020274 123.8726 236.4432 15.03507507  5370
STARLINK-5525           
1 57218U 23094A   23214.16667824 -.00875457  00000+0 -10406-1 0  9992
2 57218  42.9993 164.2376 0001312 266.1899   8.2053 15.62666328  4207
STARLINK-5520           
1 57219U 23094B   23214.16667824 -.00878733  00000+0 -10445-1 0  9996
2 57219  42.9988 164.2365 0001327 266.7992   8.2857 15.62674870  4209
STARLINK-5880           
1 57220U 23094C   23213.91667824 -.00928625  00000+0 -10854-1 0  9990
2 57220  43.0003 165.7109 0001521 258.6622  52.1828 15.63232851  4160
STARLINK-5875           
1 57221U 23094D   23214.50001157 -.00973663  00000+0 -11965-1 0  9994
2 57221  43.0001 162.2458 0001543 271.1588  81.7171 15.62086001  4255
STARLINK-5870           
1 57222U 23094E   23214.50001157 -.00971580  00000+0 -11932-1 0  9995
2 57222  43.0000 162.2424 0001594 271.6945  82.5792 15.62095623  4254
STARLINK-5519           
1 57223U 23094F   23214.16667824 -.00876191  00000+0 -10408-1 0  9996
2 57223  42.9995 164.2318 0001373 266.6777   9.7914 15.62684212  4202
STARLINK-5983           
1 57224U 23094G   23214.50001157 -.00972176  00000+0 -11937-1 0  9994
2 57224  43.0002 162.2404 0001613 273.1362  81.8352 15.62102032  4255
STARLINK-6294           
1 57225U 23094H   23214.50001157 -.00973206  00000+0 -11948-1 0  9992
2 57225  43.0000 162.2388 0001575 266.4177  89.2516 15.62108713  4257
STARLINK-6350           
1 57226U 23094J   23213.91667824 -.00921833  00000+0 -10761-1 0  9997
2 57226  42.9998 165.7061 0001475 258.2437  54.6577 15.63246823  4164
STARLINK-5996           
1 57227U 23094K   23214.50001157 -.00971149  00000+0 -11915-1 0  9992
2 57227  43.0001 162.2351 0001625 270.2455  86.8197 15.62119165  4259
STARLINK-6230           
1 57228U 23094L   23214.50001157 -.00972230  00000+0 -11921-1 0  9992
2 57228  43.0005 162.2296 0001596 271.6208  87.5373 15.62137889  4257
STARLINK-6233           
1 57229U 23094M   23213.91667824 -.00929843  00000+0 -10864-1 0  9993
2 57229  43.0000 165.7076 0001547 258.7628  53.4522 15.63245742  4162
STARLINK-6250           
1 57230U 23094N   23214.50001157 -.00972671  00000+0 -11924-1 0  9997
2 57230  43.0003 162.2278 0001539 268.8048  91.0503 15.62144718  4259
STARLINK-5840           
1 57231U 23094P   23214.50001157 -.00961656  00000+0 -11761-1 0  9998
2 57231  42.9998 162.2183 0001523 266.2144  97.8261 15.62175104  4256
STARLINK-5872           
1 57232U 23094Q   23214.16667824 -.00886903  00000+0 -10500-1 0  9991
2 57232  43.0005 164.1990 0001320 266.1667  22.7274 15.62798388  4200
STARLINK-5866           
1 57233U 23094R   23214.50001157 -.00956992  00000+0 -11705-1 0  9995
2 57233  43.0002 162.2211 0001445 270.6434  92.0028 15.62160749  4259
STARLINK-6368           
1 57234U 23094S   23214.16667824 -.00886278  00000+0 -10497-1 0  9993
2 57234  43.0003 164.2023 0001299 262.3503  25.1638 15.62786261  4208
STARLINK-6360           
1 57235U 23094T   23214.50001157 -.00956470  00000+0 -11701-1 0  9994
2 57235  43.0001 162.2227 0001454 271.2866  90.6631 15.62154051  4256
STARLINK-6315           
1 57236U 23094U   23214.04007846  .00005452  00000+0  44983-4 0  9999
2 57236  43.0015 164.7906 0001454 271.2722  88.7979 15.71362340  4181
STARLINK-6365           
1 57237U 23094V   23214.50001157 -.00954224  00000+0 -11666-1 0  9991
2 57237  43.0007 162.2191 0001472 271.3657  91.9796 15.62164161  4252
STARLINK-6334           
1 57238U 23094W   23214.10322147  .00011166  00000+0  88443-4 0  9990
2 57238  43.0007 164.4046 0001573 267.4211  92.6477 15.71365054  4191
STARLINK-6330           
1 57239U 23094X   23214.50001157 -.00952732  00000+0 -11638-1 0  9994
2 57239  43.0005 162.2139 0001626 262.9997 102.4388 15.62180077  4257
STARLINK-6351           
1 57240U 23094Y   23214.10290676  .00006381  00000+0  52060-4 0  9993
2 57240  43.0016 164.4016 0001459 268.1950  91.8750 15.71360218  4194
STARLINK-6349           
1 57241U 23094Z   23214.10353687  .00002159  00000+0  19914-4 0  9996
2 57241  43.0043 164.4087 0001660 223.4353 136.6384 15.71348079  4190
STARLINK-6306           
1 57242U 23094AA  23214.10332702  .00001093  00000+0  11782-4 0  9993
2 57242  43.0015 164.4025 0001764 230.1947 129.8765 15.71352367  4193
STARLINK-6346           
1 57243U 23094AB  23213.91270706  .00185530  00000+0  13658-2 0  9998
2 57243  42.9977 165.5526 0003434 203.7982 156.2728 15.71716178  4162
STARLINK-5610           
1 57244U 23094AC  23214.29370032  .00000664  00000+0  85167-5 0  9995
2 57244  43.0013 163.2522 0001766 251.9053 108.1622 15.71345010  4226
STARLINK-5587           
1 57245U 23094AD  23214.10311542  .00004380  00000+0  36821-4 0  9998
2 57245  43.0019 164.4035 0001477 271.4908  88.5790 15.71362022  4195
STARLINK-5049           
1 57246U 23094AE  23214.29274958  .00001847  00000+0  17523-4 0  9991
2 57246  43.0012 163.2441 0001601 263.5793  96.4892 15.71357940  4228
STARLINK-5039           
1 57247U 23094AF  23213.34005958  .00001656  00000+0  16070-4 0  9993
2 57247  43.0012 169.0035 0001379 269.2598  90.8112 15.71356091  4072
STARLINK-5514           
1 57248U 23094AG  23214.29327757 -.00000396  00000+0  42391-6 0  9991
2 57248  43.0018 163.2481 0001355 275.7823  84.2891 15.71350820  4229
STARLINK-5517           
1 57249U 23094AH  23214.10269693  .00003190  00000+0  27758-4 0  9998
2 57249  43.0015 164.4012 0001502 265.3921  94.6775 15.71356643  4199
STARLINK-5488           
1 57250U 23094AJ  23214.03871533  .00012535  00000+0  98824-4 0  9999
2 57250  43.0011 164.7811 0001843 273.1363  86.9294 15.71370636  4189
STARLINK-5513           
1 57251U 23094AK  23214.29316641  .00009419  00000+0  75162-4 0  9999
2 57251  43.0006 163.2487 0001963 263.6571  96.4073 15.71365482  4224
STARLINK-5511           
1 57252U 23094AL  23214.10195979  .00000231  00000+0  52074-5 0  9990
2 57252  43.0009 164.3939 0001678 267.4874  92.5802 15.71352135  4197
STARLINK-5516           
1 57253U 23094AM  23214.10237783  .00004882  00000+0  40636-4 0  9997
2 57253  43.0020 164.3975 0001429 264.6062  95.4643 15.71363627  4196
STARLINK-5490           
1 57254U 23094AN  23214.10175044  .00003174  00000+0  27646-4 0  9998
2 57254  43.0009 164.3908 0001718 270.8629  89.2042 15.71355080  4197
STARLINK-5481           
1 57255U 23094AP  23214.29253876  .00062276  00000+0  47470-3 0  9993
2 57255  43.0021 163.2409 0001882 243.7001 116.3674 15.71360013  4220
STARLINK-5512           
1 57256U 23094AQ  23214.29212558  .00036687  00000+0  28015-3 0  9997
2 57256  43.0010 163.2393 0001551 262.4404  97.6288 15.71510049  4227
STARLINK-5503           
1 57257U 23094AR  23214.29285454  .00002703  00000+0  24046-4 0  9996
2 57257  43.0013 163.2449 0001634 255.6500 104.4186 15.71358512  4225
STARLINK-5476           
1 57258U 23094AS  23214.29201267  .00003924  00000+0  33362-4 0  9994
2 57258  43.0022 163.2355 0001727 249.9260 110.1422 15.71353176  4222
STARLINK-5505           
1 57259U 23094AT  23214.10143361  .00003410  00000+0  29440-4 0  9997
2 57259  43.0008 164.3900 0001662 244.4599 115.6097 15.71357688  4194
STARLINK-5026           
1 57260U 23094AU  23214.22834585  .00001714  00000+0  16514-4 0  9990
2 57260  43.0014 163.6206 0001496 254.4461 105.6241 15.71358310  4214
STARLINK-5485           
1 57261U 23094AV  23213.91667824 -.00933055  00000+0 -10894-1 0  9992
2 57261  43.0004 165.7003 0001535 256.8465  58.1082 15.63271908  4163
STARLINK-5504           
1 57262U 23094AW  23214.29233054  .00001670  00000+0  16178-4 0  9990
2 57262  43.0021 163.2406 0001458 272.2698  87.8003 15.71355685  4220
STARLINK-5509           
1 57263U 23094AX  23214.50001157 -.00960290  00000+0 -11754-1 0  9998
2 57263  43.0006 162.2241 0001531 265.3820  95.8701 15.62150291  4255
STARLINK-5858           
1 57264U 23094AY  23214.29180542  .00000421  00000+0  66546-5 0  9993
2 57264  43.0017 163.2366 0001429 271.1921  88.8783 15.71352920  4222
STARLINK-5890           
1 57265U 23094AZ  23214.10101343  .00004362  00000+0  36687-4 0  9996
2 57265  43.0013 164.3859 0001662 265.2920  94.7758 15.71357789  4192
2023-095A               
1 57288U 23095A   23214.47103955  .00000051  00000+0  64925-4 0  9990
2 57288  86.5042   8.0395 0016448 229.6981 130.2726 13.40114211  3228
2023-095B               
1 57289U 23095B   23214.46879388  .00000053  00000+0  68981-4 0  9998
2 57289  86.5043   8.0388 0014941 228.0576 131.9295 13.40116486  3226
STARLINK-30198          
1 57290U 23096A   23214.16667824  .00026085  00000+0  14059-2 0  9996
2 57290  43.0011 349.2882 0001071 266.7910 302.8712 15.14320701  3527
STARLINK-30239          
1 57291U 23096B   23214.50001157 -.00034800  00000+0 -18614-2 0  9993
2 57291  43.0008 347.4010 0000731 243.2473   4.7050 15.14348705  3575
STARLINK-30210          
1 57292U 23096C   23214.50001157 -.00026372  00000+0 -14065-2 0  9995
2 57292  43.0008 347.3544 0001859 247.5012  19.3993 15.14333488  3586
STARLINK-30202          
1 57293U 23096D   23214.50001157 -.00013747  00000+0 -72625-3 0  9995
2 57293  43.0008 347.3090 0001880 247.3973  38.4282 15.14321714  3730
STARLINK-30235          
1 57294U 23096E   23214.16667824  .00027439  00000+0  14806-2 0  9994
2 57294  43.0013 349.1062 0001748 241.4401  44.1483 15.14256278  3526
